{"type": "FeatureCollection", "features": [ {"type": "Feature", "properties": {"norad_id": 66979, "name": "STARLINK-36107", "group": "last-30-days", "lat": -8.030257332452829, "lon": 105.8600407435562, "alt_km": 338.2598433151388, "timestamp": "2025-12-21T07:34:33.303754+00:00", "meta": {"OBJECT_NAME": "STARLINK-36107", "OBJECT_ID": "2025-288W", "EPOCH": "2025-12-20T22:00:01.999584", "MEAN_MOTION": 15.78710513, "ECCENTRICITY": 0.00014638, "INCLINATION": 43.0016, "RA_OF_ASC_NODE": 116.9993, "ARG_OF_PERICENTER": 275.1412, "MEAN_ANOMALY": 323.815, "EPHEMERIS_TYPE": 0, "CLASSIFICATION_TYPE": "U", "NORAD_CAT_ID": 66979, "ELEMENT_SET_NO": 999, "REV_AT_EPOCH": 314, "BSTAR": -0.0098974721, "MEAN_MOTION_DOT": -0.01567034, "MEAN_MOTION_DDOT": 0}, "tle": {"line1": "1 66979U 25288W   25354.91668981 -.01567034  00000+0 -98975-2 0  9996", "line2": "2 66979  43.0016 116.9993 0001463 275.1412 323.8150 15.78710513  3145"}}, "geometry": {"type": "Point", "coordinates": [105.8600407435562, -8.030257332452829]}}, {"type": "Feature", "properties": {"norad_id": 66980, "name": "STARLINK-36086", "group": "last-30-days", "lat": -6.6253843840691005, "lon": 107.40221028947893, "alt_km": 338.442535973124, "timestamp": "2025-12-21T07:34:33.303763+00:00", "meta": {"OBJECT_NAME": "STARLINK-36086", "OBJECT_ID": "2025-288X", "EPOCH": "2025-12-20T22:00:01.999584", "MEAN_MOTION": 15.78661483, "ECCENTRICITY": 0.00016438, "INCLINATION": 43.0014, "RA_OF_ASC_NODE": 116.9939, "ARG_OF_PERICENTER": 268.182, "MEAN_ANOMALY": 332.9306, "EPHEMERIS_TYPE": 0, "CLASSIFICATION_TYPE": "U", "NORAD_CAT_ID": 66980, "ELEMENT_SET_NO": 999, "REV_AT_EPOCH": 314, "BSTAR": -0.0099990604, "MEAN_MOTION_DOT": -0.01578097, "MEAN_MOTION_DDOT": 0}, "tle": {"line1": "1 66980U 25288X   25354.91668981 -.01578097  00000+0 -99991-2 0  9998", "line2": "2 66980  43.0014 116.9939 0001643 268.1820 332.9306 15.78661483  3145"}}, "geometry": {"type": "Point", "coordinates": [107.40221028947893, -6.6253843840691005]}}, {"type": "Feature", "properties": {"norad_id": 66981, "name": "STARLINK-36142", "group": "last-30-days", "lat": -5.24991250572329, "lon": 108.89824962254177, "alt_km": 338.3723798898327, "timestamp": "2025-12-21T07:34:33.303772+00:00", "meta": {"OBJECT_NAME": "STARLINK-36142", "OBJECT_ID": "2025-288Y", "EPOCH": "2025-12-20T22:00:01.999584", "MEAN_MOTION": 15.78623953, "ECCENTRICITY": 0.00015839, "INCLINATION": 43.0014, "RA_OF_ASC_NODE": 116.9883, "ARG_OF_PERICENTER": 271.711, "MEAN_ANOMALY": 331.493, "EPHEMERIS_TYPE": 0, "CLASSIFICATION_TYPE": "U", "NORAD_CAT_ID": 66981, "ELEMENT_SET_NO": 999, "REV_AT_EPOCH": 314, "BSTAR": -0.010075803, "MEAN_MOTION_DOT": -0.01586218, "MEAN_MOTION_DDOT": 0}, "tle": {"line1": "1 66981U 25288Y   25354.91668981 -.01586218  00000+0 -10076-1 0  9999", "line2": "2 66981  43.0014 116.9883 0001583 271.7110 331.4930 15.78623953  3146"}}, "geometry": {"type": "Point", "coordinates": [108.89824962254177, -5.24991250572329]}}, {"type": "Feature", "properties": {"norad_id": 66982, "name": "STARLINK-36113", "group": "last-30-days", "lat": -3.860000017904038, "lon": 110.39930029544428, "alt_km": 338.4334943726508, "timestamp": "2025-12-21T07:34:33.303782+00:00", "meta": {"OBJECT_NAME": "STARLINK-36113", "OBJECT_ID": "2025-288Z", "EPOCH": "2025-12-20T22:00:01.999584", "MEAN_MOTION": 15.78579734, "ECCENTRICITY": 0.00016266, "INCLINATION": 43.0012, "RA_OF_ASC_NODE": 116.9826, "ARG_OF_PERICENTER": 269.5856, "MEAN_ANOMALY": 335.7308, "EPHEMERIS_TYPE": 0, "CLASSIFICATION_TYPE": "U", "NORAD_CAT_ID": 66982, "ELEMENT_SET_NO": 999, "REV_AT_EPOCH": 314, "BSTAR": -0.010127626, "MEAN_MOTION_DOT": -0.01590546, "MEAN_MOTION_DDOT": 0}, "tle": {"line1": "1 66982U 25288Z   25354.91668981 -.01590546  00000+0 -10128-1 0  9997", "line2": "2 66982  43.0012 116.9826 0001626 269.5856 335.7308 15.78579734  3145"}}, "geometry": {"type": "Point", "coordinates": [110.39930029544428, -3.860000017904038]}}, {"type": "Feature", "properties": {"norad_id": 66983, "name": "STARLINK-36145", "group": "last-30-days", "lat": -1.0674785674105236, "lon": 113.39556864271906, "alt_km": 338.45580166404125, "timestamp": "2025-12-21T07:34:33.303792+00:00", "meta": {"OBJECT_NAME": "STARLINK-36145", "OBJECT_ID": "2025-288AA", "EPOCH": "2025-12-20T22:00:01.999584", "MEAN_MOTION": 15.78486556, "ECCENTRICITY": 0.00014712, "INCLINATION": 43.0013, "RA_OF_ASC_NODE": 116.9721, "ARG_OF_PERICENTER": 271.5947, "MEAN_ANOMALY": 337.9748, "EPHEMERIS_TYPE": 0, "CLASSIFICATION_TYPE": "U", "NORAD_CAT_ID": 66983, "ELEMENT_SET_NO": 999, "REV_AT_EPOCH": 314, "BSTAR": -0.010336369, "MEAN_MOTION_DOT": -0.01612881, "MEAN_MOTION_DDOT": 0}, "tle": {"line1": "1 66983U 25288AA  25354.91668981 -.01612881  00000+0 -10336-1 0  9996", "line2": "2 66983  43.0013 116.9721 0001471 271.5947 337.9748 15.78486556  3144"}}, "geometry": {"type": "Point", "coordinates": [113.39556864271906, -1.0674785674105236]}}, {"type": "Feature", "properties": {"norad_id": 66984, "name": "STARLINK-35591", "group": "last-30-days", "lat": -2.461598034217216, "lon": 111.9015854259081, "alt_km": 338.4237055728545, "timestamp": "2025-12-21T07:34:33.303802+00:00", "meta": {"OBJECT_NAME": "STARLINK-35591", "OBJECT_ID": "2025-288AB", "EPOCH": "2025-12-20T22:00:01.999584", "MEAN_MOTION": 15.78527591, "ECCENTRICITY": 0.0001396, "INCLINATION": 43.0012, "RA_OF_ASC_NODE": 116.9767, "ARG_OF_PERICENTER": 272.2906, "MEAN_ANOMALY": 335.1636, "EPHEMERIS_TYPE": 0, "CLASSIFICATION_TYPE": "U", "NORAD_CAT_ID": 66984, "ELEMENT_SET_NO": 999, "REV_AT_EPOCH": 314, "BSTAR": -0.010202706, "MEAN_MOTION_DOT": -0.01597295, "MEAN_MOTION_DDOT": 0}, "tle": {"line1": "1 66984U 25288AB  25354.91668981 -.01597295  00000+0 -10203-1 0  9991", "line2": "2 66984  43.0012 116.9767 0001396 272.2906 335.1636 15.78527591  3144"}}, "geometry": {"type": "Point", "coordinates": [111.9015854259081, -2.461598034217216]}}, {"type": "Feature", "properties": {"norad_id": 66985, "name": "STARLINK-36103", "group": "last-30-days", "lat": 0.34746004843482853, "lon": 114.90861001091415, "alt_km": 338.4319735907902, "timestamp": "2025-12-21T07:34:33.303811+00:00", "meta": {"OBJECT_NAME": "STARLINK-36103", "OBJECT_ID": "2025-288AC", "EPOCH": "2025-12-20T22:00:01.999584", "MEAN_MOTION": 15.78423501, "ECCENTRICITY": 0.00015261, "INCLINATION": 43.0015, "RA_OF_ASC_NODE": 116.9663, "ARG_OF_PERICENTER": 274.9233, "MEAN_ANOMALY": 336.8176, "EPHEMERIS_TYPE": 0, "CLASSIFICATION_TYPE": "U", "NORAD_CAT_ID": 66985, "ELEMENT_SET_NO": 999, "REV_AT_EPOCH": 314, "BSTAR": -0.010424305, "MEAN_MOTION_DOT": -0.01653231, "MEAN_MOTION_DDOT": 0}, "tle": {"line1": "1 66985U 25288AC  25354.91668981 -.01653231  00000+0 -10424-1 0  9990", "line2": "2 66985  43.0015 116.9663 0001526 274.9233 336.8176 15.78423501  3143"}}, "geometry": {"type": "Point", "coordinates": [114.90861001091415, 0.34746004843482853]}}, {"type": "Feature", "properties": {"norad_id": 66986, "name": "STARLINK-36135", "group": "last-30-days", "lat": 1.7585522928888173, "lon": 116.41804549454191, "alt_km": 338.5000359662272, "timestamp": "2025-12-21T07:34:33.303820+00:00", "meta": {"OBJECT_NAME": "STARLINK-36135", "OBJECT_ID": "2025-288AD", "EPOCH": "2025-12-20T22:00:01.999584", "MEAN_MOTION": 15.78354182, "ECCENTRICITY": 0.0001503, "INCLINATION": 43.001, "RA_OF_ASC_NODE": 116.9603, "ARG_OF_PERICENTER": 274.6835, "MEAN_ANOMALY": 339.2296, "EPHEMERIS_TYPE": 0, "CLASSIFICATION_TYPE": "U", "NORAD_CAT_ID": 66986, "ELEMENT_SET_NO": 999, "REV_AT_EPOCH": 314, "BSTAR": -0.01048003, "MEAN_MOTION_DOT": -0.01656403, "MEAN_MOTION_DDOT": 0}, "tle": {"line1": "1 66986U 25288AD  25354.91668981 -.01656403  00000+0 -10480-1 0  9997", "line2": "2 66986  43.0010 116.9603 0001503 274.6835 339.2296 15.78354182  3141"}}, "geometry": {"type": "Point", "coordinates": [116.41804549454191, 1.7585522928888173]}}, {"type": "Feature", "properties": {"norad_id": 66987, "name": "STARLINK-36147", "group": "last-30-days", "lat": 3.1356255776516764, "lon": 117.89600263570883, "alt_km": 338.470372685304, "timestamp": "2025-12-21T07:34:33.303829+00:00", "meta": {"OBJECT_NAME": "STARLINK-36147", "OBJECT_ID": "2025-288AE", "EPOCH": "2025-12-20T22:00:01.999584", "MEAN_MOTION": 15.78317735, "ECCENTRICITY": 0.0001548, "INCLINATION": 43.0015, "RA_OF_ASC_NODE": 116.956, "ARG_OF_PERICENTER": 276.1093, "MEAN_ANOMALY": 339.8902, "EPHEMERIS_TYPE": 0, "CLASSIFICATION_TYPE": "U", "NORAD_CAT_ID": 66987, "ELEMENT_SET_NO": 999, "REV_AT_EPOCH": 314, "BSTAR": -0.01062838, "MEAN_MOTION_DOT": -0.01674749, "MEAN_MOTION_DDOT": 0}, "tle": {"line1": "1 66987U 25288AE  25354.91668981 -.01674749  00000+0 -10628-1 0  9995", "line2": "2 66987  43.0015 116.9560 0001548 276.1093 339.8902 15.78317735  3144"}}, "geometry": {"type": "Point", "coordinates": [117.89600263570883, 3.1356255776516764]}}, {"type": "Feature", "properties": {"norad_id": 66988, "name": "YAOGAN-47", "group": "last-30-days", "lat": -10.879192512016736, "lon": -120.99824871774695, "alt_km": 500.54171535856494, "timestamp": "2025-12-21T07:34:33.303838+00:00", "meta": {"OBJECT_NAME": "YAOGAN-47", "OBJECT_ID": "2025-289A", "EPOCH": "2025-12-20T02:21:43.539840", "MEAN_MOTION": 15.23243112, "ECCENTRICITY": 6.467e-05, "INCLINATION": 97.5265, "RA_OF_ASC_NODE": 59.2376, "ARG_OF_PERICENTER": 91.4531, "MEAN_ANOMALY": 268.678, "EPHEMERIS_TYPE": 0, "CLASSIFICATION_TYPE": "U", "NORAD_CAT_ID": 66988, "ELEMENT_SET_NO": 999, "REV_AT_EPOCH": 166, "BSTAR": 0.00010945697, "MEAN_MOTION_DOT": 2.52e-05, "MEAN_MOTION_DDOT": 0}, "tle": {"line1": "1 66988U 25289A   25354.09842060  .00002520  00000+0  10946-3 0  9992", "line2": "2 66988  97.5265  59.2376 0000646  91.4531 268.6780 15.23243112  1668"}}, "geometry": {"type": "Point", "coordinates": [-120.99824871774695, -10.879192512016736]}}]}